{"type": "FeatureCollection", "features": [ {"type": "Feature", "properties": {"norad_id": 35661, "name": "COSMOS 2251 DEB", "group": "cosmos-2251-debris", "lat": -64.16771318284346, "lon": -77.33708220556439, "alt_km": 604.685280382022, "timestamp": "2025-12-19T10:50:01.598081+00:00", "meta": {"OBJECT_NAME": "COSMOS 2251 DEB", "OBJECT_ID": "1993-036APC", "EPOCH": "2025-12-17T22:11:22.609536", "MEAN_MOTION": 14.86648371, "ECCENTRICITY": 0.00874008, "INCLINATION": 74.0141, "RA_OF_ASC_NODE": 69.3947, "ARG_OF_PERICENTER": 172.2755, "MEAN_ANOMALY": 187.9796, "EPHEMERIS_TYPE": 0, "CLASSIFICATION_TYPE": "U", "NORAD_CAT_ID": 35661, "ELEMENT_SET_NO": 999, "REV_AT_EPOCH": 87945, "BSTAR": 0.00056862589, "MEAN_MOTION_DOT": 5.379e-05, "MEAN_MOTION_DDOT": 0}, "tle": {"line1": "1 35661U 93036APC 25351.92456724  .00005379  00000+0  56863-3 0  9991", "line2": "2 35661  74.0141  69.3947 0087400 172.2755 187.9796 14.86648371879454"}}, "geometry": {"type": "Point", "coordinates": [-77.33708220556439, -64.16771318284346]}}, {"type": "Feature", "properties": {"norad_id": 35663, "name": "COSMOS 2251 DEB", "group": "cosmos-2251-debris", "lat": -9.135692061896878, "lon": 109.08831322885067, "alt_km": 682.4189423347007, "timestamp": "2025-12-19T10:50:01.598091+00:00", "meta": {"OBJECT_NAME": "COSMOS 2251 DEB", "OBJECT_ID": "1993-036APE", "EPOCH": "2025-12-13T02:32:21.539904", "MEAN_MOTION": 14.65684168, "ECCENTRICITY": 0.00063461, "INCLINATION": 74.0174, "RA_OF_ASC_NODE": 123.959, "ARG_OF_PERICENTER": 198.7091, "MEAN_ANOMALY": 161.3846, "EPHEMERIS_TYPE": 0, "CLASSIFICATION_TYPE": "U", "NORAD_CAT_ID": 35663, "ELEMENT_SET_NO": 999, "REV_AT_EPOCH": 73387, "BSTAR": 0.0025042609, "MEAN_MOTION_DOT": 0.00013628, "MEAN_MOTION_DDOT": 0}, "tle": {"line1": "1 35663U 93036APE 25347.10580486  .00013628  00000+0  25043-2 0  9992", "line2": "2 35663  74.0174 123.9590 0006346 198.7091 161.3846 14.65684168733877"}}, "geometry": {"type": "Point", "coordinates": [109.08831322885067, -9.135692061896878]}}, {"type": "Feature", "properties": {"norad_id": 35667, "name": "COSMOS 2251 DEB", "group": "cosmos-2251-debris", "lat": -71.93040515549846, "lon": 8.510271185420281, "alt_km": 696.0223740674346, "timestamp": "2025-12-19T10:50:01.598102+00:00", "meta": {"OBJECT_NAME": "COSMOS 2251 DEB", "OBJECT_ID": "1993-036APJ", "EPOCH": "2025-12-14T16:10:30.846432", "MEAN_MOTION": 14.60047432, "ECCENTRICITY": 0.00195944, "INCLINATION": 74.0556, "RA_OF_ASC_NODE": 136.4208, "ARG_OF_PERICENTER": 197.4569, "MEAN_ANOMALY": 162.5926, "EPHEMERIS_TYPE": 0, "CLASSIFICATION_TYPE": "U", "NORAD_CAT_ID": 35667, "ELEMENT_SET_NO": 999, "REV_AT_EPOCH": 70831, "BSTAR": 0.0010671241, "MEAN_MOTION_DOT": 5.114e-05, "MEAN_MOTION_DDOT": 0}, "tle": {"line1": "1 35667U 93036APJ 25348.67396813  .00005114  00000+0  10671-2 0  9990", "line2": "2 35667  74.0556 136.4208 0019594 197.4569 162.5926 14.60047432708310"}}, "geometry": {"type": "Point", "coordinates": [8.510271185420281, -71.93040515549846]}}, {"type": "Feature", "properties": {"norad_id": 35668, "name": "COSMOS 2251 DEB", "group": "cosmos-2251-debris", "lat": 64.14450870744761, "lon": -8.536215417267252, "alt_km": 728.7033613239055, "timestamp": "2025-12-19T10:50:01.598112+00:00", "meta": {"OBJECT_NAME": "COSMOS 2251 DEB", "OBJECT_ID": "1993-036APK", "EPOCH": "2025-12-18T08:05:19.351392", "MEAN_MOTION": 14.64002909, "ECCENTRICITY": 0.0083412, "INCLINATION": 74.0461, "RA_OF_ASC_NODE": 209.7797, "ARG_OF_PERICENTER": 313.6421, "MEAN_ANOMALY": 45.7849, "EPHEMERIS_TYPE": 0, "CLASSIFICATION_TYPE": "U", "NORAD_CAT_ID": 35668, "ELEMENT_SET_NO": 999, "REV_AT_EPOCH": 87729, "BSTAR": 0.00019067557, "MEAN_MOTION_DOT": 1.017e-05, "MEAN_MOTION_DDOT": 0}, "tle": {"line1": "1 35668U 93036APK 25352.33702953  .00001017  00000+0  19068-3 0  9993", "line2": "2 35668  74.0461 209.7797 0083412 313.6421  45.7849 14.64002909877296"}}, "geometry": {"type": "Point", "coordinates": [-8.536215417267252, 64.14450870744761]}}, {"type": "Feature", "properties": {"norad_id": 35669, "name": "COSMOS 2251 DEB", "group": "cosmos-2251-debris", "lat": 31.531959556316643, "lon": 158.6773979287562, "alt_km": 1237.8131509038212, "timestamp": "2025-12-19T10:50:01.598122+00:00", "meta": {"OBJECT_NAME": "COSMOS 2251 DEB", "OBJECT_ID": "1993-036APL", "EPOCH": "2025-12-18T02:49:24.146112", "MEAN_MOTION": 13.57165784, "ECCENTRICITY": 0.03877468, "INCLINATION": 73.86, "RA_OF_ASC_NODE": 150.6186, "ARG_OF_PERICENTER": 261.487, "MEAN_ANOMALY": 94.2128, "EPHEMERIS_TYPE": 0, "CLASSIFICATION_TYPE": "U", "NORAD_CAT_ID": 35669, "ELEMENT_SET_NO": 999, "REV_AT_EPOCH": 60862, "BSTAR": 0.00072975902, "MEAN_MOTION_DOT": 8.23e-06, "MEAN_MOTION_DDOT": 0}, "tle": {"line1": "1 35669U 93036APL 25352.11764058  .00000823  00000+0  72976-3 0  9995", "line2": "2 35669  73.8600 150.6186 0387746 261.4870  94.2128 13.57165784608620"}}, "geometry": {"type": "Point", "coordinates": [158.6773979287562, 31.531959556316643]}}, {"type": "Feature", "properties": {"norad_id": 35670, "name": "COSMOS 2251 DEB", "group": "cosmos-2251-debris", "lat": 40.45769337165771, "lon": 65.12240778581025, "alt_km": 559.3277392720793, "timestamp": "2025-12-19T10:50:01.598132+00:00", "meta": {"OBJECT_NAME": "COSMOS 2251 DEB", "OBJECT_ID": "1993-036APM", "EPOCH": "2025-12-18T10:32:25.065600", "MEAN_MOTION": 14.94054874, "ECCENTRICITY": 0.00380936, "INCLINATION": 73.8949, "RA_OF_ASC_NODE": 52.9128, "ARG_OF_PERICENTER": 12.3684, "MEAN_ANOMALY": 347.8424, "EPHEMERIS_TYPE": 0, "CLASSIFICATION_TYPE": "U", "NORAD_CAT_ID": 35670, "ELEMENT_SET_NO": 999, "REV_AT_EPOCH": 87812, "BSTAR": 0.00098052363, "MEAN_MOTION_DOT": 0.00010595, "MEAN_MOTION_DDOT": 0}, "tle": {"line1": "1 35670U 93036APM 25352.43917900  .00010595  00000+0  98052-3 0  9998", "line2": "2 35670  73.8949  52.9128 0038093  12.3684 347.8424 14.94054874878121"}}, "geometry": {"type": "Point", "coordinates": [65.12240778581025, 40.45769337165771]}}, {"type": "Feature", "properties": {"norad_id": 35671, "name": "COSMOS 2251 DEB", "group": "cosmos-2251-debris", "lat": 71.88260062708676, "lon": -174.42462666579488, "alt_km": 746.5422051074383, "timestamp": "2025-12-19T10:50:01.598143+00:00", "meta": {"OBJECT_NAME": "COSMOS 2251 DEB", "OBJECT_ID": "1993-036APN", "EPOCH": "2025-12-17T12:02:51.877248", "MEAN_MOTION": 14.48356669, "ECCENTRICITY": 0.00414327, "INCLINATION": 74.0178, "RA_OF_ASC_NODE": 70.3857, "ARG_OF_PERICENTER": 243.6268, "MEAN_ANOMALY": 134.9759, "EPHEMERIS_TYPE": 0, "CLASSIFICATION_TYPE": "U", "NORAD_CAT_ID": 35671, "ELEMENT_SET_NO": 999, "REV_AT_EPOCH": 86832, "BSTAR": 0.00018080216, "MEAN_MOTION_DOT": 6.55e-06, "MEAN_MOTION_DDOT": 0}, "tle": {"line1": "1 35671U 93036APN 25351.50198932  .00000655  00000+0  18080-3 0  9991", "line2": "2 35671  74.0178  70.3857 0041432 243.6268 134.9759 14.48356669868323"}}, "geometry": {"type": "Point", "coordinates": [-174.42462666579488, 71.88260062708676]}}, {"type": "Feature", "properties": {"norad_id": 35674, "name": "COSMOS 2251 DEB", "group": "cosmos-2251-debris", "lat": 57.96124282141231, "lon": 96.66237402106866, "alt_km": 750.0954529010969, "timestamp": "2025-12-19T10:50:01.598153+00:00", "meta": {"OBJECT_NAME": "COSMOS 2251 DEB", "OBJECT_ID": "1993-036APR", "EPOCH": "2025-12-17T07:06:57.455712", "MEAN_MOTION": 14.54280117, "ECCENTRICITY": 0.00961628, "INCLINATION": 74.0599, "RA_OF_ASC_NODE": 307.9038, "ARG_OF_PERICENTER": 351.6495, "MEAN_ANOMALY": 8.3061, "EPHEMERIS_TYPE": 0, "CLASSIFICATION_TYPE": "U", "NORAD_CAT_ID": 35674, "ELEMENT_SET_NO": 999, "REV_AT_EPOCH": 86177, "BSTAR": 0.001519305, "MEAN_MOTION_DOT": 6.829e-05, "MEAN_MOTION_DDOT": 0}, "tle": {"line1": "1 35674U 93036APR 25351.29649833  .00006829  00000+0  15193-2 0  9991", "line2": "2 35674  74.0599 307.9038 0096162 351.6495   8.3061 14.54280117861778"}}, "geometry": {"type": "Point", "coordinates": [96.66237402106866, 57.96124282141231]}}, {"type": "Feature", "properties": {"norad_id": 35701, "name": "COSMOS 2251 DEB", "group": "cosmos-2251-debris", "lat": 73.73622689145236, "lon": 10.619995992540385, "alt_km": 818.515094558782, "timestamp": "2025-12-19T10:50:01.598163+00:00", "meta": {"OBJECT_NAME": "COSMOS 2251 DEB", "OBJECT_ID": "1993-036APW", "EPOCH": "2025-12-06T05:57:57.623904", "MEAN_MOTION": 13.80843435, "ECCENTRICITY": 0.02897209, "INCLINATION": 74.0028, "RA_OF_ASC_NODE": 313.2955, "ARG_OF_PERICENTER": 164.0681, "MEAN_ANOMALY": 196.98, "EPHEMERIS_TYPE": 0, "CLASSIFICATION_TYPE": "U", "NORAD_CAT_ID": 35701, "ELEMENT_SET_NO": 999, "REV_AT_EPOCH": 62069, "BSTAR": 0.0021223911, "MEAN_MOTION_DOT": 3.05e-05, "MEAN_MOTION_DDOT": 0}, "tle": {"line1": "1 35701U 93036APW 25340.24858361  .00003050  00000+0  21224-2 0  9998", "line2": "2 35701  74.0028 313.2955 0289720 164.0681 196.9800 13.80843435620696"}}, "geometry": {"type": "Point", "coordinates": [10.619995992540385, 73.73622689145236]}}, {"type": "Feature", "properties": {"norad_id": 35703, "name": "COSMOS 2251 DEB", "group": "cosmos-2251-debris", "lat": -48.39561608996581, "lon": -131.86949769681644, "alt_km": 634.1208468690693, "timestamp": "2025-12-19T10:50:01.598173+00:00", "meta": {"OBJECT_NAME": "COSMOS 2251 DEB", "OBJECT_ID": "1993-036APY", "EPOCH": "2025-12-18T09:38:31.022016", "MEAN_MOTION": 14.90418492, "ECCENTRICITY": 0.00644432, "INCLINATION": 74.0423, "RA_OF_ASC_NODE": 31.4322, "ARG_OF_PERICENTER": 99.4587, "MEAN_ANOMALY": 261.3887, "EPHEMERIS_TYPE": 0, "CLASSIFICATION_TYPE": "U", "NORAD_CAT_ID": 35703, "ELEMENT_SET_NO": 999, "REV_AT_EPOCH": 66700, "BSTAR": 0.00052633158, "MEAN_MOTION_DOT": 5.3e-05, "MEAN_MOTION_DDOT": 0}, "tle": {"line1": "1 35703U 93036APY 25352.40174794  .00005300  00000+0  52633-3 0  9991", "line2": "2 35703  74.0423  31.4322 0064443  99.4587 261.3887 14.90418492667004"}}, "geometry": {"type": "Point", "coordinates": [-131.86949769681644, -48.39561608996581]}}]}